[{"OBJECT_NAME":"OBJECT A","OBJECT_ID":"2025-013A","EPOCH":"2026-03-09T23:29:31.895232","MEAN_MOTION":15.29260221,"ECCENTRICITY":0.0010321,"INCLINATION":97.6364,"RA_OF_ASC_NODE":244.5149,"ARG_OF_PERICENTER":282.3775,"MEAN_ANOMALY":77.6309,"EPHEMERIS_TYPE":0,"CLASSIFICATION_TYPE":"U","NORAD_CAT_ID":62729,"ELEMENT_SET_NO":999,"REV_AT_EPOCH":6276,"BSTAR":0.0013206527,"MEAN_MOTION_DOT":0.00037616,"MEAN_MOTION_DDOT":0},{"OBJECT_NAME":"STARLINK-35749","OBJECT_ID":"2025-283B","EPOCH":"2026-03-09T06:33:36.995904","MEAN_MOTION":15.30182928,"ECCENTRICITY":7.951e-5,"INCLINATION":53.1626,"RA_OF_ASC_NODE":25.8696,"ARG_OF_PERICENTER":87.5951,"MEAN_ANOMALY":272.5141,"EPHEMERIS_TYPE":0,"CLASSIFICATION_TYPE":"U","NORAD_CAT_ID":66879,"ELEMENT_SET_NO":999,"REV_AT_EPOCH":1578,"BSTAR":-0.00058181075,"MEAN_MOTION_DOT":-0.00017541,"MEAN_MOTION_DDOT":0}]
